{
  "type": "FeatureCollection",
  "features": [
    {
      "type": "Feature",
      "geometry": {
        "type": "Point",
        "coordinates": [
          -75.966317,
          36.900147
        ]
      },
      "properties": {
        "catalog_id": "AWOIS-804",
        "source": "NOAA AWOIS / ENC wrecks & obstructions (public GIS synthesis)",
        "name": "THOMAS F. POLLARD",
        "vessel_type": null,
        "year_sunk": null,
        "depth": 0,
        "depth_units": null,
        "position_quality": "Med",
        "chart": "12221",
        "history": " NM44/20-- CHESAPEAKE BAY APPROACHES-WRECK-LIGHT BUOY ESTABLISHED- ON OCTOBER 15, 1920 A LIGHT BUOY, HORIZONTALLY STRIPED, WAS ESTABLISHED ABOUT 2.5 MILES, 129 DEGS. FROM CAPE HENRY LIGHTHOUSE IN 4 FATHOMS OF WATER TO MARK THE WRECK OF THE SUNKEN SCHOONE",
        "length_ft_est": null,
        "lat": 36.900147,
        "lon": -75.966317
      }
    },
    {
      "type": "Feature",
      "geometry": {
        "type": "Point",
        "coordinates": [
          -75.954989,
          36.935092
        ]
      },
      "properties": {
        "catalog_id": "AWOIS-833",
        "source": "NOAA AWOIS / ENC wrecks & obstructions (public GIS synthesis)",
        "name": "WESTMORELAND",
        "vessel_type": null,
        "year_sunk": null,
        "depth": 70,
        "depth_units": "Feet and tenths",
        "position_quality": "High",
        "chart": "12221",
        "history": "  NM42/39-- (LIGHTHOUSE NOTICE TO MARINERS); WRECK OF BARGE WESTMORELAND LOCATED IN 86 FEET, ABOUT 5300 YARDS, 63 DEG. FROM CAPE HENRY LIGHTHOUSE; LD OF 49 FEET.\r\n  CL725/45-- PROJECT CS-313, WRECK NO. 5; HILGARD & WAINWRIGHT HUNG WRECK AT 55 FEET. ECHO",
        "length_ft_est": null,
        "lat": 36.935092,
        "lon": -75.954989
      }
    },
    {
      "type": "Feature",
      "geometry": {
        "type": "Point",
        "coordinates": [
          -75.955483,
          36.959311
        ]
      },
      "properties": {
        "catalog_id": "AWOIS-850",
        "source": "NOAA AWOIS / ENC wrecks & obstructions (public GIS synthesis)",
        "name": "E H BLUM",
        "vessel_type": null,
        "year_sunk": null,
        "depth": 20,
        "depth_units": "Feet and tenths",
        "position_quality": "Low",
        "chart": "12221",
        "history": "  NM19/42-- U.S.C. & G.S. LOCATED A WRECK IN 29 FEET OF WATER.\r\n  FE34/42-- LOCATED AND IDENTIFIED VISIBLE WRECK OF E.H. BLUM. A STACK AND MAST WERE VISIBLE AT THE TIME OF THE SURVEY (MARCH 30, 1942). POSITION BY RANGE AND BEARING FROM CAPE HENRY LIGHTHO",
        "length_ft_est": null,
        "lat": 36.959311,
        "lon": -75.955483
      }
    },
    {
      "type": "Feature",
      "geometry": {
        "type": "Point",
        "coordinates": [
          -75.958436,
          36.945947
        ]
      },
      "properties": {
        "catalog_id": "AWOIS-14103",
        "source": "NOAA AWOIS / ENC wrecks & obstructions (public GIS synthesis)",
        "name": "WRECK",
        "vessel_type": null,
        "year_sunk": null,
        "depth": 71,
        "depth_units": "Feet and tenths",
        "position_quality": "High",
        "chart": "12222",
        "history": "D304-RU/TJ-05-- Revised charted 70 WK to a WK was a depth of 71ft (RES 10/02/07).",
        "length_ft_est": null,
        "lat": 36.945947,
        "lon": -75.958436
      }
    },
    {
      "type": "Feature",
      "geometry": {
        "type": "Point",
        "coordinates": [
          -75.97965,
          36.898481
        ]
      },
      "properties": {
        "catalog_id": "AWOIS-3080",
        "source": "NOAA AWOIS / ENC wrecks & obstructions (public GIS synthesis)",
        "name": "UNKNOWN",
        "vessel_type": null,
        "year_sunk": null,
        "depth": 0,
        "depth_units": null,
        "position_quality": "Low",
        "chart": "12208",
        "history": "  LNM40/72-10/3/72 (5TH CG)--26 FT. DANGEROUS SUNKEN WRECK PA. (CHART 12221,    \r\n2ND ED.) REP. IN APPROX. POS. LAT.36-53-54N, LONG.75-58-48W. MAST POSSIBLY  \r\n VISIBLE.                                                                     \r\nH9905/80--OPR-",
        "length_ft_est": null,
        "lat": 36.898481,
        "lon": -75.97965
      }
    },
    {
      "type": "Feature",
      "geometry": {
        "type": "Point",
        "coordinates": [
          -75.966317,
          36.900147
        ]
      },
      "properties": {
        "catalog_id": "AWOIS-2802",
        "source": "NOAA AWOIS / ENC wrecks & obstructions (public GIS synthesis)",
        "name": "OCEAN BELLE",
        "vessel_type": null,
        "year_sunk": null,
        "depth": 0,
        "depth_units": null,
        "position_quality": "Poor",
        "chart": "12221",
        "history": " ",
        "length_ft_est": null,
        "lat": 36.900147,
        "lon": -75.966317
      }
    },
    {
      "type": "Feature",
      "geometry": {
        "type": "Point",
        "coordinates": [
          -75.981317,
          36.891814
        ]
      },
      "properties": {
        "catalog_id": "AWOIS-2803",
        "source": "NOAA AWOIS / ENC wrecks & obstructions (public GIS synthesis)",
        "name": "JOANNA H. CANN",
        "vessel_type": null,
        "year_sunk": null,
        "depth": 0,
        "depth_units": null,
        "position_quality": "Poor",
        "chart": "12221",
        "history": " ",
        "length_ft_est": null,
        "lat": 36.891814,
        "lon": -75.981317
      }
    },
    {
      "type": "Feature",
      "geometry": {
        "type": "Point",
        "coordinates": [
          -75.966031,
          36.953456
        ]
      },
      "properties": {
        "catalog_id": "AWOIS-8262",
        "source": "NOAA AWOIS / ENC wrecks & obstructions (public GIS synthesis)",
        "name": "UNKNOWN",
        "vessel_type": null,
        "year_sunk": null,
        "depth": 85,
        "depth_units": "Feet and tenths",
        "position_quality": "High",
        "chart": "12221",
        "history": "  H10372/90-- OPR-D111-HE (FORMERLY FE-356SS); OBSTRUCTION LOCATED IN LAT. 36-57-12.44N, LONG. 75-57-57.71W. FATHOMETER LD OF 25.8 METERS (84 FEET). EVALUATOR RECOMMENDS CHARTING A WRECK AT SURVEYED POSITION. (ENT 4/20/92, SJV)",
        "length_ft_est": null,
        "lat": 36.953456,
        "lon": -75.966031,
        "length_m_est": 8
      }
    },
    {
      "type": "Feature",
      "geometry": {
        "type": "Point",
        "coordinates": [
          -76.012153,
          36.959033
        ]
      },
      "properties": {
        "catalog_id": "AWOIS-849",
        "source": "NOAA AWOIS / ENC wrecks & obstructions (public GIS synthesis)",
        "name": "OBSTRUCTION",
        "vessel_type": null,
        "year_sunk": null,
        "depth": 0,
        "depth_units": null,
        "position_quality": "Low",
        "chart": "12254",
        "history": "  NM DATED 8/22/50\r\n\r\n DESCRIPTION\r\n      24     NO.1185; POSITION ACCURACY WITHIN 1 MILE; REPORTED DEMOLISHED;\r\n               LOCATED 1954 (SOURCE UNK.)",
        "length_ft_est": null,
        "lat": 36.959033,
        "lon": -76.012153
      }
    },
    {
      "type": "Feature",
      "geometry": {
        "type": "Point",
        "coordinates": [
          -75.951211,
          36.927994
        ]
      },
      "properties": {
        "catalog_id": "AWOIS-14104",
        "source": "NOAA AWOIS / ENC wrecks & obstructions (public GIS synthesis)",
        "name": "OBSTRUCTION",
        "vessel_type": null,
        "year_sunk": null,
        "depth": 56,
        "depth_units": "Feet and tenths",
        "position_quality": "High",
        "chart": "12222",
        "history": "D304-RU/TJ-05-- Possible sunken buoy; chart as Dangerous 56ft Obstn (RES 10/02/07).",
        "length_ft_est": null,
        "lat": 36.927994,
        "lon": -75.951211
      }
    },
    {
      "type": "Feature",
      "geometry": {
        "type": "Point",
        "coordinates": [
          -75.971158,
          36.929136
        ]
      },
      "properties": {
        "catalog_id": "AWOIS-14105",
        "source": "NOAA AWOIS / ENC wrecks & obstructions (public GIS synthesis)",
        "name": "OBSTRUCTION",
        "vessel_type": null,
        "year_sunk": null,
        "depth": 47,
        "depth_units": "Feet and tenths",
        "position_quality": "High",
        "chart": "12222",
        "history": "D304-RU/TJ-05-- chart a dangerous 47 Obstn in Latitude 36\u00b0 55' 44.89\" N, Longitude 75\u00b0 58' 16.17\" W (RES 10/02/07).",
        "length_ft_est": null,
        "lat": 36.929136,
        "lon": -75.971158
      }
    },
    {
      "type": "Feature",
      "geometry": {
        "type": "Point",
        "coordinates": [
          -75.958692,
          36.919594
        ]
      },
      "properties": {
        "catalog_id": "AWOIS-12395",
        "source": "NOAA AWOIS / ENC wrecks & obstructions (public GIS synthesis)",
        "name": "OBSTRUCTION",
        "vessel_type": null,
        "year_sunk": null,
        "depth": 44,
        "depth_units": "Feet and tenths",
        "position_quality": "High",
        "chart": "12222",
        "history": "  NO REGISTRY NUMBER ASSIGNED; S-E604-RU-02; HLS PROJECT REPORT; SIDE SCAN SONAR CONTACT; SWMB LD OF 43 FEET IN LAT. 36-55-10.48N, LONG. 75-57-31.25W. EVALUATOR RECOMMENDS CHARTING A 43 OBSTN AS SURVEYED. (ENT 4/2/04, SJV)\r\n\r\nOPR-D304-RU/TJ-05-- Revise t",
        "length_ft_est": null,
        "lat": 36.919594,
        "lon": -75.958692
      }
    },
    {
      "type": "Feature",
      "geometry": {
        "type": "Point",
        "coordinates": [
          -75.96965,
          36.955978
        ]
      },
      "properties": {
        "catalog_id": "AWOIS-2902",
        "source": "NOAA AWOIS / ENC wrecks & obstructions (public GIS synthesis)",
        "name": "OBSTRUCTION",
        "vessel_type": null,
        "year_sunk": null,
        "depth": 0,
        "depth_units": null,
        "position_quality": "High",
        "chart": "12221",
        "history": "  NM29/57--7/20/57; U.S. NAVY ADVISES A BUOY ESTABLISHED TO MARK A SUBMERGED STEEL HYDROGRAPHIC EXPERIMENTAL STRUCTURE WHICH EXTENDS 5 FEET ABOVE THE BOTTOM; IN 1966 NO EVIDENCE COULD BE FURNISHED CONCERNING THE STRUCTURE'S REMOVAL.\r\n  H9901/80-- OPR-D10",
        "length_ft_est": null,
        "lat": 36.955978,
        "lon": -75.96965
      }
    },
    {
      "type": "Feature",
      "geometry": {
        "type": "Point",
        "coordinates": [
          -75.947983,
          36.891258
        ]
      },
      "properties": {
        "catalog_id": "AWOIS-3417",
        "source": "NOAA AWOIS / ENC wrecks & obstructions (public GIS synthesis)",
        "name": "OBSTRUCTION",
        "vessel_type": null,
        "year_sunk": null,
        "depth": 0,
        "depth_units": null,
        "position_quality": "Low",
        "chart": "12221",
        "history": "  CL347/58-- FROM CHIEF, USC&GS CHART DIVISION TO ALL CARTOGRAPHERS DATED MAY 8, 1958; CHART ALL KNOWN WRECKS (NONDANGEROUS AS WELL AS THOSE CONSIDERED DANGEROUS TO NAVIGATION) OUT TO THE 300 FATHOM CURVE. NOTE: THE SOURCE IS THE NAVY WRECK LIST, BELOW).",
        "length_ft_est": null,
        "lat": 36.891258,
        "lon": -75.947983
      }
    },
    {
      "type": "Feature",
      "geometry": {
        "type": "Point",
        "coordinates": [
          -75.971061,
          36.953583
        ]
      },
      "properties": {
        "catalog_id": "AWOIS-8252",
        "source": "NOAA AWOIS / ENC wrecks & obstructions (public GIS synthesis)",
        "name": "OBSTRUCTION",
        "vessel_type": null,
        "year_sunk": null,
        "depth": 82,
        "depth_units": "Feet and tenths",
        "position_quality": "High",
        "chart": "12221",
        "history": "  H10372/90-- OPR-D111-HE (FORMERLY FE-356SS); OBSTRUCTION LOCATED BY H-10343/90 (WHITING) NOT DISPROVED. IN LAT. 36-57-12.90N, LONG. 75-58-15.82W. ESTIMATED DEPTH OF 25.2 METERS. RECOMMEND CHARTING AND ADDITIONAL WORK AT AN OPPORTUNE TIME. (ENT 4/20/92,",
        "length_ft_est": null,
        "lat": 36.953583,
        "lon": -75.971061,
        "length_m_est": 2
      }
    },
    {
      "type": "Feature",
      "geometry": {
        "type": "Point",
        "coordinates": [
          -75.954975,
          36.935144
        ]
      },
      "properties": {
        "catalog_id": "AWOIS-8254",
        "source": "NOAA AWOIS / ENC wrecks & obstructions (public GIS synthesis)",
        "name": "OBSTRUCTION",
        "vessel_type": null,
        "year_sunk": null,
        "depth": 56,
        "depth_units": "Feet and tenths",
        "position_quality": "High",
        "chart": "12221",
        "history": "  H10372/90-- OPR-D111-HE (FORMERLY FE-356SS); UNCHARTED OBSTRUCTION LOCATED IN LAT. 36-56-06.39N, LONG. 75-57-17.86WCOVERED 54.1 FEET. EVALUATOR STATES THIS ITEM IS THE SAME AS THAT DISCUSSED IN A COE REPORT TITLED \"ENGINEERING ANALYSIS OF NINE SIDE SCA",
        "length_ft_est": null,
        "lat": 36.935144,
        "lon": -75.954975
      }
    },
    {
      "type": "Feature",
      "geometry": {
        "type": "Point",
        "coordinates": [
          -75.959458,
          36.932717
        ]
      },
      "properties": {
        "catalog_id": "AWOIS-8255",
        "source": "NOAA AWOIS / ENC wrecks & obstructions (public GIS synthesis)",
        "name": "OBSTRUCTION",
        "vessel_type": null,
        "year_sunk": null,
        "depth": 61,
        "depth_units": "Feet and tenths",
        "position_quality": "High",
        "chart": "12221",
        "history": "  H10372/92-- OPR-D111-HE (FORMERLY FE-356SS); OBSTRUCTION LOCATED IN LAT. 36-55-57.84N, LONG. 75-57-33.89W. FATHOMETER DEPTH OF 18.2 METERS. EVALUATOR RECOMMENDS CHARTING AS SURVEYED. (ENT 4/20/92, SJV)\r\n\r\nOPR-D304-RU/TJ-05--Chart a dangerous 61 Obstn i",
        "length_ft_est": null,
        "lat": 36.932717,
        "lon": -75.959458,
        "length_m_est": 2
      }
    },
    {
      "type": "Feature",
      "geometry": {
        "type": "Point",
        "coordinates": [
          -75.954597,
          36.940464
        ]
      },
      "properties": {
        "catalog_id": "AWOIS-8256",
        "source": "NOAA AWOIS / ENC wrecks & obstructions (public GIS synthesis)",
        "name": "OBSTRUCTION",
        "vessel_type": null,
        "year_sunk": null,
        "depth": 67,
        "depth_units": "Meters and tenths",
        "position_quality": "High",
        "chart": "12221",
        "history": "\r\n HISTORY\r\n  H10372/90-- OPR-D111-HE (FORMERLY FE-356SS); OBSTRUCTION \u00ec\nLOCATED IN LAT. 36-56-25.67N, LONG. 74-57-16.55W. FATHOMETER LD \u00ec\nOF 20.3 METERS. EVALUATOR RECOMMENDS CHARTING AS SURVEYED. (ENT \u00ec\n4/20/92, SJV)",
        "length_ft_est": null,
        "lat": 36.940464,
        "lon": -75.954597,
        "length_m_est": 3
      }
    },
    {
      "type": "Feature",
      "geometry": {
        "type": "Point",
        "coordinates": [
          -75.968044,
          36.941592
        ]
      },
      "properties": {
        "catalog_id": "AWOIS-8258",
        "source": "NOAA AWOIS / ENC wrecks & obstructions (public GIS synthesis)",
        "name": "OBSTRUCTION",
        "vessel_type": null,
        "year_sunk": null,
        "depth": 64,
        "depth_units": "Feet and tenths",
        "position_quality": "High",
        "chart": "12221",
        "history": "  H10372/90-- OPR-D111-HE (FORMERLY FE-356SS); OBSTRUCTION LOCATED IN LAT. 36-56-29.52N, LONG. 75-58-04.45W. FATHOMETER LD OF 19.3 METERS. EVALUATOR RECOMMENDS CHARTING AS SURVEYED. (ENT 4/20/92, SJV)\r\n\r\nOPR-D304-RU/TJ-05-- Revise the charted dangerous 6",
        "length_ft_est": null,
        "lat": 36.941592,
        "lon": -75.968044,
        "length_m_est": 3
      }
    },
    {
      "type": "Feature",
      "geometry": {
        "type": "Point",
        "coordinates": [
          -75.956806,
          36.946597
        ]
      },
      "properties": {
        "catalog_id": "AWOIS-8261",
        "source": "NOAA AWOIS / ENC wrecks & obstructions (public GIS synthesis)",
        "name": "OBSTRUCTION",
        "vessel_type": null,
        "year_sunk": null,
        "depth": 80,
        "depth_units": "Feet and tenths",
        "position_quality": "High",
        "chart": "12221",
        "history": "  H10372/90-- OPR-D111-HE (FORMERLY FE-356SS); OBSTRUCTION LOCATED IN LAT. 36-56-47.75N, LONG. 75-57-24.50W. FATHOMETER LD OF 24.4 METERS (80 FEET). EVALUATOR RECOMMENDS CHARTING AS SURVEYED. (ENT 4/20/92, SJV)",
        "length_ft_est": null,
        "lat": 36.946597,
        "lon": -75.956806,
        "length_m_est": 4
      }
    },
    {
      "type": "Feature",
      "geometry": {
        "type": "Point",
        "coordinates": [
          -75.974153,
          36.957853
        ]
      },
      "properties": {
        "catalog_id": "AWOIS-8264",
        "source": "NOAA AWOIS / ENC wrecks & obstructions (public GIS synthesis)",
        "name": "OBSTRUCTION",
        "vessel_type": null,
        "year_sunk": null,
        "depth": 88,
        "depth_units": "Feet and tenths",
        "position_quality": "High",
        "chart": "12221",
        "history": "  H10372/90-- OPR-D111-HE (FORMERLY FE-356SS); OBSTRUCTION LOCATED IN LAT. 36-57-28.27N, LONG. 75-58-26.95W. FATHOMETER LD OF 26.9 METERS. EVALUATOR RECOMMENDS CHARTING AS SURVEYED. (ENT 4/20/92, SJV)",
        "length_ft_est": null,
        "lat": 36.957853,
        "lon": -75.974153,
        "length_m_est": 9
      }
    },
    {
      "type": "Feature",
      "geometry": {
        "type": "Point",
        "coordinates": [
          -76.012611,
          36.934689
        ]
      },
      "properties": {
        "catalog_id": "AWOIS-3770",
        "source": "NOAA AWOIS / ENC wrecks & obstructions (public GIS synthesis)",
        "name": "OBSTRUCTION",
        "vessel_type": null,
        "year_sunk": null,
        "depth": 21,
        "depth_units": "Feet and tenths",
        "position_quality": "High",
        "chart": "12254",
        "history": "  H9814/80--OPR-D103-PE-80; 1:10,000 SCALE; ARGO (R/R), SEXTANT FIXES;          \r\nECHO SOUNDER; IRREGULAR SNDGS ON FATHOMETER, DEVELOPMENT INDICATED            \r\nOBSTR; DIVER INVESTIGATION; WOODEN AND STEEL DEBRIS EXTENDING 85 FT IN        \r\nAN E-W DIREC",
        "length_ft_est": null,
        "lat": 36.934689,
        "lon": -76.012611
      }
    },
    {
      "type": "Feature",
      "geometry": {
        "type": "Point",
        "coordinates": [
          -76.005967,
          36.928953
        ]
      },
      "properties": {
        "catalog_id": "AWOIS-3776",
        "source": "NOAA AWOIS / ENC wrecks & obstructions (public GIS synthesis)",
        "name": "OBSTRUCTION",
        "vessel_type": null,
        "year_sunk": null,
        "depth": 0,
        "depth_units": null,
        "position_quality": "High",
        "chart": "12254",
        "history": "ORIGINAL SOURCE UNKOWN; PILES PA IN LAT 36-55-45N LONG 76-00-30W.             \r\nH9814/80--OPR-D103-PE-80; 1:10,000 SCALE SURVEY; ARGO (R/R), DELNORTE         \r\n (R/A); SEARCHED FOR BUT NOT FOUND AT CHARTED LOCATION; SUBM PILES            \r\n LOCATED AT LA",
        "length_ft_est": null,
        "lat": 36.928953,
        "lon": -76.005967
      }
    },
    {
      "type": "Feature",
      "geometry": {
        "type": "Point",
        "coordinates": [
          -75.968261,
          36.958478
        ]
      },
      "properties": {
        "catalog_id": "AWOIS-851",
        "source": "NOAA AWOIS / ENC wrecks & obstructions (public GIS synthesis)",
        "name": "OBSTRUCTION",
        "vessel_type": null,
        "year_sunk": null,
        "depth": 20,
        "depth_units": "Feet and tenths",
        "position_quality": "Med",
        "chart": "12222",
        "history": "  H6976/45-47WD--WAHI4245; 1:40,000 SCALE SURVEY; VISUAL CONTROL; SUBM. OBSTR.\r\nHUNG AT 21FT; CLEARED BY 20FT; DRAG INDICATED SMALL OBJECTS RATHER THE SHOAL;\r\nCLOSE TO WARTIME MINE FIELD; SUSPECTED THAT OBSTR. IS A MINE ANCHOR OR\r\nLISTENING DEVICE EMBEDD",
        "length_ft_est": null,
        "lat": 36.958478,
        "lon": -75.968261
      }
    }
  ],
  "metadata": {
    "aoi_bbox_wgs84": [
      -76.02,
      36.88,
      -75.94,
      36.96
    ],
    "source": "NOAA Office of Coast Survey AWOIS (2016) + ENC wrecks/obstructions public GIS synthesis",
    "attribution": "NOAA OCS; MarineCadastre/HIFLD-style public wrecks & obstructions layer",
    "license_note": "U.S. Government public data; research/demo only \u2014 NOT for navigation.",
    "service": "https://services5.arcgis.com/HDRa0B57OVrv2E1q/arcgis/rest/services/Wrecks_and_Obstructions/FeatureServer/0"
  }
}